1 45074U 20006AG  23219.62643168 -.00001267  00000-0 -66164-4 0  9996
2 45074  53.0544 189.1728 0001285 100.7688 259.3446 15.06393007194635
1 45074U 20006AG  23220.35624644  .00009320  00000-0  64359-3 0  9995
2 45074  53.0536 185.8964 0001320 105.4718 254.6417 15.06408702194744
1 45074U 20006AG  23221.15241931  .00004477  00000-0  31927-3 0  9991
2 45074  53.0540 182.3224 0001409 101.8757 258.2390 15.06394763194865
1 45074U 20006AG  23222.28030771  .00013923  00000-0  95113-3 0  9997
2 45074  53.0534 177.2577 0001262 106.2749 253.8379 15.06422914195037
1 45074U 20006AG  23222.61204523  .00003809  00000-0  27454-3 0  9997
2 45074  53.0543 175.7688 0001798  85.3401 274.7794 15.06393704195081
1 45074U 20006AG  23223.27551981  .00003795  00000-0  27364-3 0  9997
2 45074  53.0537 172.7912 0001584  88.5439 271.5731 15.06389049195184
1 45074U 20006AG  23224.13802101  .00016326  00000-0  11117-2 0  9998
2 45074  53.0536 168.9195 0001188  85.1468 274.9657 15.06423063195312
1 45074U 20006AG  23224.86783882  .00004674  00000-0  33244-3 0  9991
2 45074  53.0544 165.6431 0001201  79.5346 280.5778 15.06404854195422
1 45074U 20006AG  23225.19957539  .00002956  00000-0  21729-3 0  9996
2 45074  53.0536 164.1537 0001256  92.7301 267.3831 15.06395628195478
1 45074U 20006AG  23226.06207635  .00014741  00000-0  10058-2 0  9995
2 45074  53.0535 160.2812 0001090 106.2840 253.8269 15.06422465195605
1 45074U 20006AG  23227.12363055  .00003277  00000-0  23882-3 0  9994
2 45074  53.0543 155.5173 0001128 124.5119 235.5976 15.06394277195763
1 45074U 20006AG  23228.05248856  .00019523  00000-0  13253-2 0  9999
2 45074  53.0547 151.3475 0001077  94.8102 265.3010 15.06417419195900
1 45074U 20006AG  23229.04769636  .00014762  00000-0  10075-2 0  9992
2 45074  53.0551 146.8803 0001322  94.2312 265.8828 15.06411734196052
1 45074U 20006AG  23230.10922761  .00019670  00000-0  13341-2 0  9993
2 45074  53.0549 142.1162 0001403  92.1492 267.9658 15.06445999196214
1 45074U 20006AG  23230.77270270 -.00001855  00000-0 -10563-3 0  9999
2 45074  53.0538 139.1377 0001850  92.1205 267.9995 15.06401427196317
1 45074U 20006AG  23231.10444681  .00021723  00000-0  14738-2 0  9997
2 45074  53.0546 137.6485 0001465  70.4513 289.6634 15.06373655196369
1 45074U 20006AG  23232.16599644  .00025738  00000-0  17394-2 0  9995
2 45074  53.0542 132.8834 0001408  73.6747 286.4397 15.06423046196520
1 45074U 20006AG  23233.09486081  .00011152  00000-0  76652-3 0  9996
2 45074  53.0543 128.7098 0001430  88.0851 272.0302 15.06393840196668
1 45074U 20006AG  23234.09004847  .00020085  00000-0  13620-2 0  9993
2 45074  53.0541 124.2425 0001383  91.5588 268.5560 15.06438845196812
1 45074U 20006AG  23235.08526664  .00019309  00000-0  13120-2 0  9991
2 45074  53.0542 119.7800 0001262  89.5625 270.5508 15.06388616196965
1 45074U 20006AG  23236.08046716  .00016475  00000-0  11218-2 0  9994
2 45074  53.0545 115.3088 0001381  77.3379 282.7764 15.06417388196778
1 45074U 20006AG  23237.80548748  .00013257  00000-0  90678-3 0  9990
2 45074  53.0544 107.5655 0001207  87.0283 273.0844 15.06416596197378
1 45074U 20006AG  23237.87183311  .00014336  00000-0  97884-3 0  9993
2 45074  53.0545 107.2674 0001227  89.5957 270.5172 15.06420658197048
1 45074U 20006AG  23238.00452387  .00014907  00000-0  10167-2 0  9993
2 45074  53.0546 106.6715 0001184  90.5241 269.5883 15.06429452197068
1 45074U 20006AG  23238.66799742  .00001884  00000-0  14534-3 0  9997
2 45074  53.0542 103.6909 0001195  95.2835 264.8291 15.06400324197506
1 45074U 20006AG  23238.86703992 -.00000803  00000-0 -35011-4 0  9997
2 45074  53.0542 102.8003 0001153  98.9707 261.1412 15.06392678197196
1 45074U 20006AG  23238.99973460 -.00001995  00000-0 -11509-3 0  9998
2 45074  53.0542 102.2049 0001241  98.2666 261.8463 15.06394158197216
1 45074U 20006AG  23238.99973460 -.00001995  00000-0 -11509-3 0  9998
2 45074  53.0542 102.2049 0001241  98.2666 261.8463 15.06394158197553
1 45074U 20006AG  23239.86224091  .00010772  00000-0  74072-3 0  9999
2 45074  53.0541  98.3335 0001139 103.7506 256.3609 15.06411652197343
1 45074U 20006AG  23239.99493325  .00012772  00000-0  87437-3 0  9992
2 45074  53.0541  97.7375 0001199 101.2954 258.8170 15.06416853197704
1 45074U 20006AG  23240.32666964  .00003337  00000-0  24279-3 0  9994
2 45074  53.0548  96.2469 0001288  94.2264 265.8872 15.06403434197756
1 45074U 20006AG  23240.59206156  .00003523  00000-0  25527-3 0  9990
2 45074  53.0535  95.0580 0001974  87.1200 273.0015 15.06399447197798
1 45074U 20006AG  23240.85745053  .00002228  00000-0  16848-3 0  9990
2 45074  53.0541  93.8661 0001180  93.4236 266.6888 15.06390677197498
1 45074U 20006AG  23240.85745053  .00002228  00000-0  16848-3 0  9990
2 45074  53.0541  93.8661 0001180  93.4236 266.6888 15.06390677197836
1 45074U 20006AG  23241.71996113  .00015458  00000-0  10541-2 0  9993
2 45074  53.0545  89.9937 0001260  90.7254 269.3879 15.06409534197968
1 45074U 20006AG  23241.85265310  .00009537  00000-0  65817-3 0  9994
2 45074  53.0550  89.3975 0001339  91.4892 268.6251 15.06407638197647
1 45074U 20006AG  23241.98534372  .00008361  00000-0  57936-3 0  9992
2 45074  53.0550  88.8014 0001321  93.5976 266.5164 15.06412508198005
1 45074U 20006AG  23242.84785812  .00004964  00000-0  35186-3 0  9993
2 45074  53.0544  84.9299 0001484  87.9342 272.1817 15.06405093197798
1 45074U 20006AG  23242.98055144  .00004395  00000-0  31372-3 0  9997
2 45074  53.0542  84.3348 0001191  83.0105 277.1019 15.06403762197817
1 45074U 20006AG  23242.98055144  .00004395  00000-0  31372-3 0  9997
2 45074  53.0542  84.3348 0001191  83.0105 277.1019 15.06403762198155
1 45074U 20006AG  23244.24113267  .00002114  00000-0  16079-3 0  9993
2 45074  53.0545  78.6744 0001240  85.2450 274.8681 15.06394940198006
1 45074U 20006AG  23244.24113267  .00002114  00000-0  16079-3 0  9993
2 45074  53.0545  78.6744 0001240  85.2450 274.8681 15.06394940198343
1 45074U 20006AG  23244.83825851  .00003756  00000-0  27096-3 0  9991
2 45074  53.0535  75.9946 0001506  93.6026 266.5135 15.06395192198097
1 45074U 20006AG  23245.50172693  .00009288  00000-0  64154-3 0  9997
2 45074  53.0567  73.0150 0001233  91.8517 268.2613 15.06405346198532
1 45074U 20006AG  23245.56807214  .00011411  00000-0  78351-3 0  9992
2 45074  53.0553  72.7175 0001204  93.7708 266.3418 15.06410763198206
1 45074U 20006AG  23245.83345451  .00025299  00000-0  17096-2 0  9999
2 45074  53.0552  71.5261 0001143  92.4469 267.6651 15.06435519198243
1 45074U 20006AG  23245.83345451  .00025299  00000-0  17096-2 0  9999
2 45074  53.0552  71.5261 0001143  92.4469 267.6651 15.06435519198580
1 45074U 20006AG  23246.23153670  .00006935  00000-0  48381-3 0  9992
2 45074  53.0552  69.7385 0001253  83.3201 276.7931 15.06413346198644
1 45074U 20006AG  23246.49692788 -.00000115  00000-0  11197-4 0  9999
2 45074  53.0553  68.5478 0001678  85.7235 274.3946 15.06398396198343
1 45074U 20006AG  23246.49692788 -.00000115  00000-0  11197-4 0  9999
2 45074  53.0553  68.5478 0001678  85.7235 274.3946 15.06398396198680
1 45074U 20006AG  23247.49213536  .00014039  00000-0  95942-3 0  9998
2 45074  53.0549  64.0800 0001345  84.6988 275.4154 15.06403174198492
1 45074U 20006AG  23247.75752042  .00014895  00000-0  10164-2 0  9999
2 45074  53.0549  62.8886 0001328  84.1546 275.9595 15.06412229198875
1 45074U 20006AG  23248.48733838  .00000378  00000-0  44272-4 0  9992
2 45074  53.0557  59.6126 0001275  89.9633 270.1502 15.06394483198984
1 45074U 20006AG  23249.48254288  .00014565  00000-0  99443-3 0  9992
2 45074  53.0571  55.1453 0001027  89.5783 270.5324 15.06409779198791
1 45074U 20006AG  23249.48254288  .00014565  00000-0  99443-3 0  9992
2 45074  53.0571  55.1453 0001027  89.5783 270.5324 15.06409779199130
1 45074U 20006AG  23249.88061704  .00019344  00000-0  13129-2 0  9991
2 45074  53.0570  53.3585 0001108  87.9715 272.1401 15.06429634198856
1 45074U 20006AG  23250.41139787  .00006774  00000-0  47313-3 0  9995
2 45074  53.0562  50.9758 0002411  76.5707 283.5551 15.06408309199270
1 45074U 20006AG  23250.47774500 -.00002861  00000-0 -17332-3 0  9992
2 45074  53.0561  50.6778 0001159  79.3628 280.7492 15.06392418198948
1 45074U 20006AG  23250.47774500 -.00002861  00000-0 -17332-3 0  9992
2 45074  53.0561  50.6778 0001159  79.3628 280.7492 15.06392418199286
1 45074U 20006AG  23250.87582855  .00003149  00000-0  23021-3 0  9996
2 45074  53.0556  48.8904 0001336  80.2828 279.8312 15.06398347199007
1 45074U 20006AG  23251.14121744  .00001353  00000-0  10973-3 0  9990
2 45074  53.0560  47.7001 0001674  82.1997 277.9182 15.06396911199044
1 45074U 20006AG  23251.67198888  .00015140  00000-0  10327-2 0  9992
2 45074  53.0556  45.3165 0001223  75.3341 284.7783 15.06414224199468
1 45074U 20006AG  23251.80468033  .00018069  00000-0  12281-2 0  9993
2 45074  53.0556  44.7207 0001209  74.6257 285.4866 15.06422357199141
1 45074U 20006AG  23252.40180695  .00004389  00000-0  31334-3 0  9996
2 45074  53.0553  42.0418 0001231  79.2554 280.8574 15.06400053199570
1 45074U 20006AG  23252.60085011  .00007627  00000-0  53034-3 0  9993
2 45074  53.0556  41.1463 0001328  79.4080 280.7058 15.06399929199267
1 45074U 20006AG  23253.39701240  .00013636  00000-0  93231-3 0  9999
2 45074  53.0553  37.5723 0001304  83.5400 276.5737 15.06409564199385
1 45074U 20006AG  23253.66239484  .00016925  00000-0  11517-2 0  9995
2 45074  53.0550  36.3813 0001283  81.1746 278.9388 15.06423426199765
1 45074U 20006AG  23254.12682143  .00008417  00000-0  58305-3 0  9995
2 45074  53.0561  34.2961 0001484  90.6014 269.5145 15.06414929199837
1 45074U 20006AG  23254.52490569  .00000834  00000-0  74851-4 0  9998
2 45074  53.0552  32.5096 0001395  93.5122 266.6026 15.06397554199559
1 45074U 20006AG  23254.65760012  .00005888  00000-0  41386-3 0  9995
2 45074  53.0557  31.9143 0001323  89.7906 270.3234 15.06399347199913
1 45074U 20006AG  23255.52010471  .00025658  00000-0  17337-2 0  9994
2 45074  53.0560  28.0421 0001297  89.4099 270.7038 15.06431219199701
